{
  "type": "FeatureCollection",
  "features": [
    {
      "type": "Feature",
      "properties": {
        "norad_id": 66549,
        "name": "SHIJIAN-28 (SJ-28)",
        "group": "last-30-days",
        "lat": 0.578529994127929,
        "lon": -78.3861251238426,
        "alt_km": 35790.18914222806,
        "timestamp": "2025-12-26T04:40:04.508794+00:00",
        "meta_object_name": "SHIJIAN-28 (SJ-28)",
        "meta_object_id": "2025-277A",
        "meta_epoch": "2025-12-25T13:29:07.948320",
        "meta_mean_motion": 1.0026485,
        "meta_eccentricity": 9.97e-05,
        "meta_inclination": 4.9871,
        "meta_ra_of_asc_node": 274.7549,
        "meta_arg_of_pericenter": 127.1328,
        "meta_mean_anomaly": 11.4336,
        "meta_ephemeris_type": 0,
        "meta_classification_type": "U",
        "meta_norad_cat_id": 66549,
        "meta_element_set_no": 999,
        "meta_rev_at_epoch": 41,
        "meta_bstar": 0,
        "meta_mean_motion_dot": -3.37e-06,
        "meta_mean_motion_ddot": 0,
        "tle_line1": "1 66549U 25277A   25359.56189755 -.00000337  00000+0  00000+0 0  9995",
        "tle_line2": "2 66549   4.9871 274.7549 0000997 127.1328  11.4336  1.00264850   417"
      },
      "geometry": {
        "type": "Point",
        "coordinates": [
          -78.3861251238426,
          0.578529994127929
        ]
      }
    },
    {
      "type": "Feature",
      "properties": {
        "norad_id": 66550,
        "name": "CZ-7A R/B",
        "group": "last-30-days",
        "lat": 13.413984196382875,
        "lon": 12.900553022499986,
        "alt_km": 4506.949621417564,
        "timestamp": "2025-12-26T04:40:04.508840+00:00",
        "meta_object_name": "CZ-7A R/B",
        "meta_object_id": "2025-277B",
        "meta_epoch": "2025-12-23T05:53:12.433056",
        "meta_mean_motion": 3.27661077,
        "meta_eccentricity": 0.66094342,
        "meta_inclination": 14.3426,
        "meta_ra_of_asc_node": 263.9223,
        "meta_arg_of_pericenter": 200.4471,
        "meta_mean_anomaly": 110.5172,
        "meta_ephemeris_type": 0,
        "meta_classification_type": "U",
        "meta_norad_cat_id": 66550,
        "meta_element_set_no": 999,
        "meta_rev_at_epoch": 65,
        "meta_bstar": 0.0068493476,
        "meta_mean_motion_dot": 0.10979967,
        "meta_mean_motion_ddot": 1.8894821e-05,
        "tle_line1": "1 66550U 25277B   25357.24528279  .10979967  18895-4  68493-2 0  9991",
        "tle_line2": "2 66550  14.3426 263.9223 6609434 200.4471 110.5172  3.27661077   658"
      },
      "geometry": {
        "type": "Point",
        "coordinates": [
          12.900553022499986,
          13.413984196382875
        ]
      }
    },
    {
      "type": "Feature",
      "properties": {
        "norad_id": 66554,
        "name": "GLOBAL-33",
        "group": "last-30-days",
        "lat": -0.8659902509686349,
        "lon": 160.27508912281132,
        "alt_km": 466.9305993739745,
        "timestamp": "2025-12-26T04:40:04.508868+00:00",
        "meta_object_name": "GLOBAL-33",
        "meta_object_id": "2025-267A",
        "meta_epoch": "2025-12-25T23:11:09.479616",
        "meta_mean_motion": 15.31778281,
        "meta_eccentricity": 0.00048835,
        "meta_inclination": 42.0212,
        "meta_ra_of_asc_node": 340.6327,
        "meta_arg_of_pericenter": 183.6559,
        "meta_mean_anomaly": 176.4243,
        "meta_ephemeris_type": 0,
        "meta_classification_type": "U",
        "meta_norad_cat_id": 66554,
        "meta_element_set_no": 999,
        "meta_rev_at_epoch": 543,
        "meta_bstar": 0.00045946365,
        "meta_mean_motion_dot": 0.00014182,
        "meta_mean_motion_ddot": 0,
        "tle_line1": "1 66554U 25267A   25359.96608194  .00014182  00000+0  45946-3 0  9991",
        "tle_line2": "2 66554  42.0212 340.6327 0004883 183.6559 176.4243 15.31778281  5436"
      },
      "geometry": {
        "type": "Point",
        "coordinates": [
          160.27508912281132,
          -0.8659902509686349
        ]
      }
    },
    {
      "type": "Feature",
      "properties": {
        "norad_id": 66557,
        "name": "STARLINK-35699",
        "group": "last-30-days",
        "lat": 8.357843419460593,
        "lon": 51.68857434940952,
        "alt_km": 457.8702505772717,
        "timestamp": "2025-12-26T04:40:04.508881+00:00",
        "meta_object_name": "STARLINK-35699",
        "meta_object_id": "2025-268A",
        "meta_epoch": "2025-12-26T00:00:02.000160",
        "meta_mean_motion": 15.36585265,
        "meta_eccentricity": 0.00016514,
        "meta_inclination": 43.0004,
        "meta_ra_of_asc_node": 43.7309,
        "meta_arg_of_pericenter": 256.6844,
        "meta_mean_anomaly": 118.9426,
        "meta_ephemeris_type": 0,
        "meta_classification_type": "U",
        "meta_norad_cat_id": 66557,
        "meta_element_set_no": 999,
        "meta_rev_at_epoch": 608,
        "meta_bstar": -0.06013134,
        "meta_mean_motion_dot": -0.01957703,
        "meta_mean_motion_ddot": 0,
        "tle_line1": "1 66557U 25268A   25360.00002315 -.01957703  00000+0 -60131-1 0  9994",
        "tle_line2": "2 66557  43.0004  43.7309 0001651 256.6844 118.9426 15.36585265  6087"
      },
      "geometry": {
        "type": "Point",
        "coordinates": [
          51.68857434940952,
          8.357843419460593
        ]
      }
    },
    {
      "type": "Feature",
      "properties": {
        "norad_id": 66558,
        "name": "STARLINK-35695",
        "group": "last-30-days",
        "lat": 18.54143511557893,
        "lon": 63.67638355705963,
        "alt_km": 453.6346533615824,
        "timestamp": "2025-12-26T04:40:04.508896+00:00",
        "meta_object_name": "STARLINK-35695",
        "meta_object_id": "2025-268B",
        "meta_epoch": "2025-12-25T22:00:01.999584",
        "meta_mean_motion": 15.37832998,
        "meta_eccentricity": 0.00012115,
        "meta_inclination": 43.0004,
        "meta_ra_of_asc_node": 44.1738,
        "meta_arg_of_pericenter": 262.4527,
        "meta_mean_anomaly": 26.213,
        "meta_ephemeris_type": 0,
        "meta_classification_type": "U",
        "meta_norad_cat_id": 66558,
        "meta_element_set_no": 999,
        "meta_rev_at_epoch": 607,
        "meta_bstar": -0.059577399,
        "meta_mean_motion_dot": -0.02013341,
        "meta_mean_motion_ddot": 0,
        "tle_line1": "1 66558U 25268B   25359.91668981 -.02013341  00000+0 -59577-1 0  9994",
        "tle_line2": "2 66558  43.0004  44.1738 0001211 262.4527  26.2130 15.37832998  6075"
      },
      "geometry": {
        "type": "Point",
        "coordinates": [
          63.67638355705963,
          18.54143511557893
        ]
      }
    },
    {
      "type": "Feature",
      "properties": {
        "norad_id": 66559,
        "name": "STARLINK-35419",
        "group": "last-30-days",
        "lat": 42.06449508563077,
        "lon": 146.84273966324326,
        "alt_km": 435.32881550156617,
        "timestamp": "2025-12-26T04:40:04.508908+00:00",
        "meta_object_name": "STARLINK-35419",
        "meta_object_id": "2025-268C",
        "meta_epoch": "2025-12-25T22:00:01.999584",
        "meta_mean_motion": 15.42987054,
        "meta_eccentricity": 0.00014581,
        "meta_inclination": 43.0009,
        "meta_ra_of_asc_node": 44.0081,
        "meta_arg_of_pericenter": 264.4974,
        "meta_mean_anomaly": 91.8122,
        "meta_ephemeris_type": 0,
        "meta_classification_type": "U",
        "meta_norad_cat_id": 66559,
        "meta_element_set_no": 999,
        "meta_rev_at_epoch": 610,
        "meta_bstar": -0.051635762,
        "meta_mean_motion_dot": -0.02066701,
        "meta_mean_motion_ddot": 0,
        "tle_line1": "1 66559U 25268C   25359.91668981 -.02066701  00000+0 -51636-1 0  9991",
        "tle_line2": "2 66559  43.0009  44.0081 0001458 264.4974  91.8122 15.42987054  6105"
      },
      "geometry": {
        "type": "Point",
        "coordinates": [
          146.84273966324326,
          42.06449508563077
        ]
      }
    },
    {
      "type": "Feature",
      "properties": {
        "norad_id": 66560,
        "name": "STARLINK-35411",
        "group": "last-30-days",
        "lat": 40.21765061219018,
        "lon": 157.2349259663631,
        "alt_km": 433.9967615961896,
        "timestamp": "2025-12-26T04:40:04.508919+00:00",
        "meta_object_name": "STARLINK-35411",
        "meta_object_id": "2025-268D",
        "meta_epoch": "2025-12-25T22:00:01.999584",
        "meta_mean_motion": 15.43519688,
        "meta_eccentricity": 0.00014991,
        "meta_inclination": 43.0011,
        "meta_ra_of_asc_node": 43.9896,
        "meta_arg_of_pericenter": 261.7615,
        "meta_mean_anomaly": 102.058,
        "meta_ephemeris_type": 0,
        "meta_classification_type": "U",
        "meta_norad_cat_id": 66560,
        "meta_element_set_no": 999,
        "meta_rev_at_epoch": 607,
        "meta_bstar": -0.050816166,
        "meta_mean_motion_dot": -0.02070711,
        "meta_mean_motion_ddot": 0,
        "tle_line1": "1 66560U 25268D   25359.91668981 -.02070711  00000+0 -50816-1 0  9998",
        "tle_line2": "2 66560  43.0011  43.9896 0001499 261.7615 102.0580 15.43519688  6073"
      },
      "geometry": {
        "type": "Point",
        "coordinates": [
          157.2349259663631,
          40.21765061219018
        ]
      }
    }
  ]
}